{"type": "FeatureCollection", "features": [ {"type": "Feature", "properties": {"norad_id": 31674, "name": "FENGYUN 1C DEB", "group": "fengyun-1c-debris", "lat": -11.078071411333967, "lon": -149.022968706351, "alt_km": 716.0047277228514, "timestamp": "2025-12-21T20:41:08.243719+00:00", "meta": {"OBJECT_NAME": "FENGYUN 1C DEB", "OBJECT_ID": "1999-025CCG", "EPOCH": "2025-12-17T21:32:12.264288", "MEAN_MOTION": 14.51972431, "ECCENTRICITY": 0.00249893, "INCLINATION": 98.9275, "RA_OF_ASC_NODE": 28.5294, "ARG_OF_PERICENTER": 268.9263, "MEAN_ANOMALY": 90.9067, "EPHEMERIS_TYPE": 0, "CLASSIFICATION_TYPE": "U", "NORAD_CAT_ID": 31674, "ELEMENT_SET_NO": 999, "REV_AT_EPOCH": 64689, "BSTAR": 0.0019267574, "MEAN_MOTION_DOT": 7.767e-05, "MEAN_MOTION_DDOT": 0}, "tle": {"line1": "1 31674U 99025CCG 25351.89736417  .00007767  00000+0  19268-2 0  9991", "line2": "2 31674  98.9275  28.5294 0024989 268.9263  90.9067 14.51972431646892"}}, "geometry": {"type": "Point", "coordinates": [-149.022968706351, -11.078071411333967]}}, {"type": "Feature", "properties": {"norad_id": 31678, "name": "FENGYUN 1C DEB", "group": "fengyun-1c-debris", "lat": -10.919206781177813, "lon": -76.20771905436266, "alt_km": 899.2313808693443, "timestamp": "2025-12-21T20:41:08.243728+00:00", "meta": {"OBJECT_NAME": "FENGYUN 1C DEB", "OBJECT_ID": "1999-025CCL", "EPOCH": "2025-12-21T13:11:52.031328", "MEAN_MOTION": 14.53261476, "ECCENTRICITY": 0.02584166, "INCLINATION": 98.8, "RA_OF_ASC_NODE": 105.177, "ARG_OF_PERICENTER": 1.149, "MEAN_ANOMALY": 359.0245, "EPHEMERIS_TYPE": 0, "CLASSIFICATION_TYPE": "U", "NORAD_CAT_ID": 31678, "ELEMENT_SET_NO": 999, "REV_AT_EPOCH": 96967, "BSTAR": 0.00058298085, "MEAN_MOTION_DOT": 3.704e-05, "MEAN_MOTION_DDOT": 0}, "tle": {"line1": "1 31678U 99025CCL 25355.54990777  .00003704  00000+0  58298-3 0  9996", "line2": "2 31678  98.8000 105.1770 0258416   1.1490 359.0245 14.53261476969678"}}, "geometry": {"type": "Point", "coordinates": [-76.20771905436266, -10.919206781177813]}}, {"type": "Feature", "properties": {"norad_id": 31680, "name": "FENGYUN 1C DEB", "group": "fengyun-1c-debris", "lat": -49.88145214216778, "lon": 118.09788310251633, "alt_km": 464.80097860379374, "timestamp": "2025-12-21T20:41:08.243737+00:00", "meta": {"OBJECT_NAME": "FENGYUN 1C DEB", "OBJECT_ID": "1999-025CCN", "EPOCH": "2025-12-19T13:46:38.260416", "MEAN_MOTION": 15.24517341, "ECCENTRICITY": 0.0075074, "INCLINATION": 99.8378, "RA_OF_ASC_NODE": 103.2151, "ARG_OF_PERICENTER": 267.596, "MEAN_ANOMALY": 91.6672, "EPHEMERIS_TYPE": 0, "CLASSIFICATION_TYPE": "U", "NORAD_CAT_ID": 31680, "ELEMENT_SET_NO": 999, "REV_AT_EPOCH": 276, "BSTAR": 0.00092506, "MEAN_MOTION_DOT": 0.00024601, "MEAN_MOTION_DDOT": 0}, "tle": {"line1": "1 31680U 99025CCN 25353.57405394  .00024601  00000+0  92506-3 0  9995", "line2": "2 31680  99.8378 103.2151 0075074 267.5960  91.6672 15.24517341  2764"}}, "geometry": {"type": "Point", "coordinates": [118.09788310251633, -49.88145214216778]}}, {"type": "Feature", "properties": {"norad_id": 31685, "name": "FENGYUN 1C DEB", "group": "fengyun-1c-debris", "lat": -43.27963894867842, "lon": 28.12672883593806, "alt_km": 872.4810816766076, "timestamp": "2025-12-21T20:41:08.243746+00:00", "meta": {"OBJECT_NAME": "FENGYUN 1C DEB", "OBJECT_ID": "1999-025CCT", "EPOCH": "2025-12-21T12:22:35.792256", "MEAN_MOTION": 14.09661237, "ECCENTRICITY": 0.00162887, "INCLINATION": 98.7301, "RA_OF_ASC_NODE": 19.4714, "ARG_OF_PERICENTER": 200.1038, "MEAN_ANOMALY": 159.9493, "EPHEMERIS_TYPE": 0, "CLASSIFICATION_TYPE": "U", "NORAD_CAT_ID": 31685, "ELEMENT_SET_NO": 999, "REV_AT_EPOCH": 95213, "BSTAR": 0.00010204913, "MEAN_MOTION_DOT": 1.36e-06, "MEAN_MOTION_DDOT": 0}, "tle": {"line1": "1 31685U 99025CCT 25355.51569204  .00000136  00000+0  10205-3 0  9990", "line2": "2 31685  98.7301  19.4714 0016288 200.1038 159.9493 14.09661237952137"}}, "geometry": {"type": "Point", "coordinates": [28.12672883593806, -43.27963894867842]}}, {"type": "Feature", "properties": {"norad_id": 31686, "name": "FENGYUN 1C DEB", "group": "fengyun-1c-debris", "lat": -29.53594193185954, "lon": 72.14302605477846, "alt_km": 655.1258760285964, "timestamp": "2025-12-21T20:41:08.243755+00:00", "meta": {"OBJECT_NAME": "FENGYUN 1C DEB", "OBJECT_ID": "1999-025CCU", "EPOCH": "2025-12-21T11:01:55.784352", "MEAN_MOTION": 14.72229552, "ECCENTRICITY": 0.02829937, "INCLINATION": 98.1515, "RA_OF_ASC_NODE": 67.0809, "ARG_OF_PERICENTER": 61.7771, "MEAN_ANOMALY": 301.17, "EPHEMERIS_TYPE": 0, "CLASSIFICATION_TYPE": "U", "NORAD_CAT_ID": 31686, "ELEMENT_SET_NO": 999, "REV_AT_EPOCH": 97947, "BSTAR": 0.00051452353, "MEAN_MOTION_DOT": 6.088e-05, "MEAN_MOTION_DDOT": 0}, "tle": {"line1": "1 31686U 99025CCU 25355.45967343  .00006088  00000+0  51452-3 0  9991", "line2": "2 31686  98.1515  67.0809 0282993  61.7771 301.1700 14.72229552979474"}}, "geometry": {"type": "Point", "coordinates": [72.14302605477846, -29.53594193185954]}}, {"type": "Feature", "properties": {"norad_id": 31688, "name": "FENGYUN 1C DEB", "group": "fengyun-1c-debris", "lat": -21.745770486979005, "lon": -133.82175921377012, "alt_km": 886.4225016578766, "timestamp": "2025-12-21T20:41:08.243764+00:00", "meta": {"OBJECT_NAME": "FENGYUN 1C DEB", "OBJECT_ID": "1999-025CCW", "EPOCH": "2025-12-21T09:27:32.858784", "MEAN_MOTION": 14.02315643, "ECCENTRICITY": 0.00756658, "INCLINATION": 98.9626, "RA_OF_ASC_NODE": 49.3273, "ARG_OF_PERICENTER": 117.5868, "MEAN_ANOMALY": 243.3009, "EPHEMERIS_TYPE": 0, "CLASSIFICATION_TYPE": "U", "NORAD_CAT_ID": 31688, "ELEMENT_SET_NO": 999, "REV_AT_EPOCH": 95399, "BSTAR": 2.1228335e-05, "MEAN_MOTION_DOT": -1e-07, "MEAN_MOTION_DDOT": 0}, "tle": {"line1": "1 31688U 99025CCW 25355.39413031 -.00000010  00000+0  21228-4 0  9995", "line2": "2 31688  98.9626  49.3273 0075665 117.5868 243.3009 14.02315643953996"}}, "geometry": {"type": "Point", "coordinates": [-133.82175921377012, -21.745770486979005]}}, {"type": "Feature", "properties": {"norad_id": 31691, "name": "FENGYUN 1C DEB", "group": "fengyun-1c-debris", "lat": 81.11232330107232, "lon": -7.217590401579645, "alt_km": 821.0032816307339, "timestamp": "2025-12-21T20:41:08.243773+00:00", "meta": {"OBJECT_NAME": "FENGYUN 1C DEB", "OBJECT_ID": "1999-025CCZ", "EPOCH": "2025-12-17T11:52:08.430528", "MEAN_MOTION": 14.26190936, "ECCENTRICITY": 0.00616801, "INCLINATION": 98.8819, "RA_OF_ASC_NODE": 77.9922, "ARG_OF_PERICENTER": 225.8341, "MEAN_ANOMALY": 133.776, "EPHEMERIS_TYPE": 0, "CLASSIFICATION_TYPE": "U", "NORAD_CAT_ID": 31691, "ELEMENT_SET_NO": 999, "REV_AT_EPOCH": 64179, "BSTAR": 0.001756178, "MEAN_MOTION_DOT": 4.247e-05, "MEAN_MOTION_DDOT": 0}, "tle": {"line1": "1 31691U 99025CCZ 25351.49454202  .00004247  00000+0  17562-2 0  9990", "line2": "2 31691  98.8819  77.9922 0061680 225.8341 133.7760 14.26190936641792"}}, "geometry": {"type": "Point", "coordinates": [-7.217590401579645, 81.11232330107232]}}, {"type": "Feature", "properties": {"norad_id": 31692, "name": "FENGYUN 1C DEB", "group": "fengyun-1c-debris", "lat": 58.5101057719941, "lon": -172.04544914930375, "alt_km": 796.9782443348258, "timestamp": "2025-12-21T20:41:08.243782+00:00", "meta": {"OBJECT_NAME": "FENGYUN 1C DEB", "OBJECT_ID": "1999-025CDA", "EPOCH": "2025-12-18T22:43:06.035232", "MEAN_MOTION": 14.18414405, "ECCENTRICITY": 0.00880976, "INCLINATION": 99.1757, "RA_OF_ASC_NODE": 349.6414, "ARG_OF_PERICENTER": 64.1143, "MEAN_ANOMALY": 296.9081, "EPHEMERIS_TYPE": 0, "CLASSIFICATION_TYPE": "U", "NORAD_CAT_ID": 31692, "ELEMENT_SET_NO": 999, "REV_AT_EPOCH": 58297, "BSTAR": 0.002131478, "MEAN_MOTION_DOT": 4.527e-05, "MEAN_MOTION_DDOT": 0}, "tle": {"line1": "1 31692U 99025CDA 25352.94659763  .00004527  00000+0  21315-2 0  9993", "line2": "2 31692  99.1757 349.6414 0088097  64.1143 296.9081 14.18414405582971"}}, "geometry": {"type": "Point", "coordinates": [-172.04544914930375, 58.5101057719941]}}, {"type": "Feature", "properties": {"norad_id": 31695, "name": "FENGYUN 1C DEB", "group": "fengyun-1c-debris", "lat": -81.53414151916567, "lon": -177.22040336591095, "alt_km": 609.5082217634499, "timestamp": "2025-12-21T20:41:08.243791+00:00", "meta": {"OBJECT_NAME": "FENGYUN 1C DEB", "OBJECT_ID": "1999-025CDD", "EPOCH": "2025-12-20T12:31:09.702912", "MEAN_MOTION": 14.73845928, "ECCENTRICITY": 0.01749697, "INCLINATION": 98.2649, "RA_OF_ASC_NODE": 78.9886, "ARG_OF_PERICENTER": 203.7711, "MEAN_ANOMALY": 155.5345, "EPHEMERIS_TYPE": 0, "CLASSIFICATION_TYPE": "U", "NORAD_CAT_ID": 31695, "ELEMENT_SET_NO": 999, "REV_AT_EPOCH": 66086, "BSTAR": 0.0012316414, "MEAN_MOTION_DOT": 0.00010264, "MEAN_MOTION_DDOT": 0}, "tle": {"line1": "1 31695U 99025CDD 25354.52164008  .00010264  00000+0  12316-2 0  9991", "line2": "2 31695  98.2649  78.9886 0174969 203.7711 155.5345 14.73845928660862"}}, "geometry": {"type": "Point", "coordinates": [-177.22040336591095, -81.53414151916567]}}, {"type": "Feature", "properties": {"norad_id": 31714, "name": "FENGYUN 1C DEB", "group": "fengyun-1c-debris", "lat": 61.104349826472614, "lon": 94.05822697668826, "alt_km": 606.1282904784703, "timestamp": "2025-12-21T20:41:08.243800+00:00", "meta": {"OBJECT_NAME": "FENGYUN 1C DEB", "OBJECT_ID": "1999-025CDM", "EPOCH": "2025-12-20T07:37:36.052032", "MEAN_MOTION": 14.88778002, "ECCENTRICITY": 0.00168865, "INCLINATION": 99.0321, "RA_OF_ASC_NODE": 255.5489, "ARG_OF_PERICENTER": 277.819, "MEAN_ANOMALY": 208.4855, "EPHEMERIS_TYPE": 0, "CLASSIFICATION_TYPE": "U", "NORAD_CAT_ID": 31714, "ELEMENT_SET_NO": 999, "REV_AT_EPOCH": 96162, "BSTAR": 0.0040437912, "MEAN_MOTION_DOT": 0.0003806, "MEAN_MOTION_DDOT": 0}, "tle": {"line1": "1 31714U 99025CDM 25354.31777838  .00038060  00000+0  40438-2 0  9991", "line2": "2 31714  99.0321 255.5489 0016886 277.8190 208.4855 14.88778002961624"}}, "geometry": {"type": "Point", "coordinates": [94.05822697668826, 61.104349826472614]}}]}